FENGYUN 1C DEB          
1 30744U 99025ATE 17345.06438300  .00000909  00000-0  36946-3 0  9996
2 30744  98.8433  19.2612 0018242 338.0884  74.7228 14.30035165560062
